{
  "type": "FeatureCollection",
  "features": [
    {
      "type": "Feature",
      "properties": {
        "norad_id": 30630,
        "name": "FENGYUN 1C DEB",
        "group": "fengyun-1c-debris",
        "lat": -1.0736290791698786,
        "lon": 173.2114205230397,
        "alt_km": 805.9645632261809,
        "timestamp": "2025-12-25T11:37:44.712899+00:00",
        "meta_object_name": "FENGYUN 1C DEB",
        "meta_object_id": "1999-025ANM",
        "meta_epoch": "2025-12-24T10:27:01.717920",
        "meta_mean_motion": 14.22417538,
        "meta_eccentricity": 0.00257282,
        "meta_inclination": 99.1734,
        "meta_ra_of_asc_node": 171.9467,
        "meta_arg_of_pericenter": 41.7778,
        "meta_mean_anomaly": 348.2512,
        "meta_ephemeris_type": 0,
        "meta_classification_type": "U",
        "meta_norad_cat_id": 30630,
        "meta_element_set_no": 999,
        "meta_rev_at_epoch": 97379,
        "meta_bstar": 0.00076592021,
        "meta_mean_motion_dot": 1.664e-05,
        "meta_mean_motion_ddot": 0,
        "tle_line1": "1 30630U 99025ANM 25358.43543655  .00001664  00000+0  76592-3 0  9993",
        "tle_line2": "2 30630  99.1734 171.9467 0025728  41.7778 348.2512 14.22417538973797"
      },
      "geometry": {
        "type": "Point",
        "coordinates": [
          173.2114205230397,
          -1.0736290791698786
        ]
      }
    },
    {
      "type": "Feature",
      "properties": {
        "norad_id": 30632,
        "name": "FENGYUN 1C DEB",
        "group": "fengyun-1c-debris",
        "lat": -66.80396382666282,
        "lon": -69.54358858823606,
        "alt_km": 694.5263430405612,
        "timestamp": "2025-12-25T11:37:44.712911+00:00",
        "meta_object_name": "FENGYUN 1C DEB",
        "meta_object_id": "1999-025ANP",
        "meta_epoch": "2025-12-24T14:52:16.819968",
        "meta_mean_motion": 14.63146326,
        "meta_eccentricity": 0.00139652,
        "meta_inclination": 98.8251,
        "meta_ra_of_asc_node": 130.7887,
        "meta_arg_of_pericenter": 134.5891,
        "meta_mean_anomaly": 240.5493,
        "meta_ephemeris_type": 0,
        "meta_classification_type": "U",
        "meta_norad_cat_id": 30632,
        "meta_element_set_no": 999,
        "meta_rev_at_epoch": 97865,
        "meta_bstar": 0.0038478242,
        "meta_mean_motion_dot": 0.00019815,
        "meta_mean_motion_ddot": 0,
        "tle_line1": "1 30632U 99025ANP 25358.61963912  .00019815  00000+0  38478-2 0  9994",
        "tle_line2": "2 30632  98.8251 130.7887 0013965 134.5891 240.5493 14.63146326978656"
      },
      "geometry": {
        "type": "Point",
        "coordinates": [
          -69.54358858823606,
          -66.80396382666282
        ]
      }
    },
    {
      "type": "Feature",
      "properties": {
        "norad_id": 30633,
        "name": "FENGYUN 1C DEB",
        "group": "fengyun-1c-debris",
        "lat": -25.330134163088402,
        "lon": -132.4076653809608,
        "alt_km": 916.1416499862116,
        "timestamp": "2025-12-25T11:37:44.712921+00:00",
        "meta_object_name": "FENGYUN 1C DEB",
        "meta_object_id": "1999-025ANQ",
        "meta_epoch": "2025-12-24T02:17:37.896000",
        "meta_mean_motion": 14.04415433,
        "meta_eccentricity": 0.0130061,
        "meta_inclination": 98.4205,
        "meta_ra_of_asc_node": 222.2832,
        "meta_arg_of_pericenter": 227.8599,
        "meta_mean_anomaly": 286.6703,
        "meta_ephemeris_type": 0,
        "meta_classification_type": "U",
        "meta_norad_cat_id": 30633,
        "meta_element_set_no": 999,
        "meta_rev_at_epoch": 96051,
        "meta_bstar": 0.00082978265,
        "meta_mean_motion_dot": 1.385e-05,
        "meta_mean_motion_ddot": 0,
        "tle_line1": "1 30633U 99025ANQ 25358.09557750  .00001385  00000+0  82978-3 0  9994",
        "tle_line2": "2 30633  98.4205 222.2832 0130061 227.8599 286.6703 14.04415433960511"
      },
      "geometry": {
        "type": "Point",
        "coordinates": [
          -132.4076653809608,
          -25.330134163088402
        ]
      }
    },
    {
      "type": "Feature",
      "properties": {
        "norad_id": 30634,
        "name": "FENGYUN 1C DEB",
        "group": "fengyun-1c-debris",
        "lat": -44.585387536918546,
        "lon": 153.42573168001593,
        "alt_km": 950.9932364512724,
        "timestamp": "2025-12-25T11:37:44.712931+00:00",
        "meta_object_name": "FENGYUN 1C DEB",
        "meta_object_id": "1999-025ANR",
        "meta_epoch": "2025-12-24T22:55:54.862176",
        "meta_mean_motion": 14.09800858,
        "meta_eccentricity": 0.0121281,
        "meta_inclination": 99.2939,
        "meta_ra_of_asc_node": 342.1676,
        "meta_arg_of_pericenter": 62.7246,
        "meta_mean_anomaly": 358.5373,
        "meta_ephemeris_type": 0,
        "meta_classification_type": "U",
        "meta_norad_cat_id": 30634,
        "meta_element_set_no": 999,
        "meta_rev_at_epoch": 95789,
        "meta_bstar": 0.0023764,
        "meta_mean_motion_dot": 4.428e-05,
        "meta_mean_motion_ddot": 0,
        "tle_line1": "1 30634U 99025ANR 25358.95549609  .00004428  00000+0  23764-2 0  9992",
        "tle_line2": "2 30634  99.2939 342.1676 0121281  62.7246 358.5373 14.09800858957895"
      },
      "geometry": {
        "type": "Point",
        "coordinates": [
          153.42573168001593,
          -44.585387536918546
        ]
      }
    },
    {
      "type": "Feature",
      "properties": {
        "norad_id": 30639,
        "name": "FENGYUN 1C DEB",
        "group": "fengyun-1c-debris",
        "lat": -29.4733163982162,
        "lon": -73.16851323080904,
        "alt_km": 748.5837912377474,
        "timestamp": "2025-12-25T11:37:44.712941+00:00",
        "meta_object_name": "FENGYUN 1C DEB",
        "meta_object_id": "1999-025ANW",
        "meta_epoch": "2025-12-25T03:56:31.924896",
        "meta_mean_motion": 14.32524554,
        "meta_eccentricity": 0.0068738,
        "meta_inclination": 99.0178,
        "meta_ra_of_asc_node": 111.6477,
        "meta_arg_of_pericenter": 245.4562,
        "meta_mean_anomaly": 113.9445,
        "meta_ephemeris_type": 0,
        "meta_classification_type": "U",
        "meta_norad_cat_id": 30639,
        "meta_element_set_no": 999,
        "meta_rev_at_epoch": 96897,
        "meta_bstar": 0.0033575,
        "meta_mean_motion_dot": 9.309e-05,
        "meta_mean_motion_ddot": 0,
        "tle_line1": "1 30639U 99025ANW 25359.16425839  .00009309  00000+0  33575-2 0  9993",
        "tle_line2": "2 30639  99.0178 111.6477 0068738 245.4562 113.9445 14.32524554968975"
      },
      "geometry": {
        "type": "Point",
        "coordinates": [
          -73.16851323080904,
          -29.4733163982162
        ]
      }
    },
    {
      "type": "Feature",
      "properties": {
        "norad_id": 30640,
        "name": "FENGYUN 1C DEB",
        "group": "fengyun-1c-debris",
        "lat": -69.85239239051893,
        "lon": -134.89195298951975,
        "alt_km": 907.8879893283629,
        "timestamp": "2025-12-25T11:37:44.712953+00:00",
        "meta_object_name": "FENGYUN 1C DEB",
        "meta_object_id": "1999-025ANX",
        "meta_epoch": "2025-12-25T03:57:24.057792",
        "meta_mean_motion": 14.14694364,
        "meta_eccentricity": 0.0079981,
        "meta_inclination": 99.0559,
        "meta_ra_of_asc_node": 70.5498,
        "meta_arg_of_pericenter": 65.5622,
        "meta_mean_anomaly": 359.2296,
        "meta_ephemeris_type": 0,
        "meta_classification_type": "U",
        "meta_norad_cat_id": 30640,
        "meta_element_set_no": 999,
        "meta_rev_at_epoch": 96621,
        "meta_bstar": 0.0013502,
        "meta_mean_motion_dot": 2.635e-05,
        "meta_mean_motion_ddot": 0,
        "tle_line1": "1 30640U 99025ANX 25359.16486178  .00002635  00000+0  13502-2 0  9991",
        "tle_line2": "2 30640  99.0559  70.5498 0079981  65.5622 359.2296 14.14694364966217"
      },
      "geometry": {
        "type": "Point",
        "coordinates": [
          -134.89195298951975,
          -69.85239239051893
        ]
      }
    },
    {
      "type": "Feature",
      "properties": {
        "norad_id": 30641,
        "name": "FENGYUN 1C DEB",
        "group": "fengyun-1c-debris",
        "lat": -80.90729479925993,
        "lon": 35.529366786017455,
        "alt_km": 735.219918376305,
        "timestamp": "2025-12-25T11:37:44.712963+00:00",
        "meta_object_name": "FENGYUN 1C DEB",
        "meta_object_id": "1999-025ANY",
        "meta_epoch": "2025-12-24T14:07:31.116576",
        "meta_mean_motion": 14.79055802,
        "meta_eccentricity": 0.01364342,
        "meta_inclination": 98.944,
        "meta_ra_of_asc_node": 294.2822,
        "meta_arg_of_pericenter": 89.6133,
        "meta_mean_anomaly": 90.8277,
        "meta_ephemeris_type": 0,
        "meta_classification_type": "U",
        "meta_norad_cat_id": 30641,
        "meta_element_set_no": 999,
        "meta_rev_at_epoch": 707,
        "meta_bstar": 0.00056185973,
        "meta_mean_motion_dot": 4.795e-05,
        "meta_mean_motion_ddot": 0,
        "tle_line1": "1 30641U 99025ANY 25358.58855459  .00004795  00000+0  56186-3 0  9994",
        "tle_line2": "2 30641  98.9440 294.2822 0136434  89.6133  90.8277 14.79055802  7078"
      },
      "geometry": {
        "type": "Point",
        "coordinates": [
          35.529366786017455,
          -80.90729479925993
        ]
      }
    }
  ]
}